ORBCOMM FM20            
1 25416U 98046D   25245.48182226  .00002062  00000+0  73138-3 0  9990
2 25416  44.9935 175.1888 0002654 326.1943  33.8736 14.37343273415385
ORBCOMM FM16            
1 25417U 98046E   25245.59342069  .00002969  00000+0  99629-3 0  9995
2 25417  44.9921 165.2027 0006224 331.8652  28.1859 14.39092444415402
ORBCOMM FM15            
1 25418U 98046F   25245.51939480  .00002847  00000+0  96426-3 0  9994
2 25418  44.9955 170.9314 0005917 330.7287  29.3230 14.38732661415386
ORBCOMM FM14            
1 25419U 98046G   25245.51751942  .00002949  00000+0  98984-3 0  9994
2 25419  44.9944 168.9526 0004702 328.2560  31.8004 14.39107002415354
ORBCOMM FM13            
1 25420U 98046H   25245.21309761  .00003028  00000+0  10414-2 0  9991
2 25420  44.9957 179.1322 0006856 310.9362  49.0893 14.37826326414326
ORBCOMM FM21            
1 25475U 98053A   25245.51523323  .00001593  00000+0  57427-3 0  9995
2 25475  45.0075 263.2622 0003851 264.7890  95.2518 14.37478994408370
ORBCOMM FM22            
1 25476U 98053B   25245.35655912  .00002153  00000+0  74313-3 0  9994
2 25476  45.0067 258.2353 0005646 263.0916  96.9290 14.38555791408380
ORBCOMM FM23            
1 25477U 98053C   25245.43631216  .00001904  00000+0  67439-3 0  9999
2 25477  45.0075 265.6474 0004814 259.4987 100.5319 14.37679124408514
